#aV2006  8 12  0  0   .00000000      96 DD+AD WGS84 FIT  NGA
## 1387 518400.00000000   900.00000000 53959  .0000000000000
+   29     1  2  3  4  5  6  7  8  9 10 11 13 14 15 16 17 18
+         19 20 21 22 23 24 25 26 27 28 29 30  0  0  0  0  0
+          0  0  0  0  0  0  0  0  0  0  0  0  0  0  0  0  0
+          0  0  0  0  0  0  0  0  0  0  0  0  0  0  0  0  0
+          0  0  0  0  0  0  0  0  0  0  0  0  0  0  0  0  0
++         0  0  0  0  0  0  0  0  0  0  0  0  0  0  0  0  0
++         0  0  0  0  0  0  0  0  0  0  0  0  0  0  0  0  0
++         0  0  0  0  0  0  0  0  0  0  0  0  0  0  0  0  0
++         0  0  0  0  0  0  0  0  0  0  0  0  0  0  0  0  0
++         0  0  0  0  0  0  0  0  0  0  0  0  0  0  0  0  0
%c cc cc ccc ccc cccc cccc cccc cccc ccccc ccccc ccccc ccccc
%c cc cc ccc ccc cccc cccc cccc cccc ccccc ccccc ccccc ccccc
%f  0.0000000  0.000000000  0.00000000000  0.000000000000000
%f  0.0000000  0.000000000  0.00000000000  0.000000000000000
%i    0    0    0    0      0      0      0      0         0
%i    0    0    0    0      0      0      0      0         0
/*      NGA, ST. LOUIS,MO.                                  
/*   EPHEMERIS COMPUTED FROM  3 DAYS OF DATA                
/* CCCCCCCCCCCCCCCCCCCCCCCCCCCCCCCCCCCCCCCCCCCCCCCCCCCCCCCCC
/* CCCCCCCCCCCCCCCCCCCCCCCCCCCCCCCCCCCCCCCCCCCCCCCCCCCCCCCCC
*  2006  8 12  7  0   .00000000                                                 
P  1 -14198.045454  20889.713336   8311.217624     70.476421                    
V  1  -8717.855077   5725.391047 -30039.791222       .020577                    
P  2   5947.440627 -14267.678866  21340.291879     23.355389                    
V  2  26790.758582   7196.063138  -2847.031693       .040641                    
P  3  -8151.749556  22812.449146 -10689.695224    172.965474                    
V  3 -11288.034703   8235.531816  26927.581237      -.215729                    
P  4  18800.747929  -7676.710525  17258.129428    292.005843                    
V  4  20653.106364   7467.727389 -18787.065044       .066989                    
P  5 -12673.089402 -22758.020801   5405.386651    291.751486                    
V  5    611.457199  -7819.956066 -30144.536869       .231524                    
P  6 -18193.028289  -1503.745979  19510.439564    598.374723                    
V  6  15409.587174 -19017.071704  12968.653622       .018150                    
P  7 -19467.864719  17745.272417   4170.368047    536.452814                    
V  7    606.241266  -5938.652449  30512.638238      -.025038                    
P  8  24109.717854  -1023.578265 -11698.726023    -75.651074                    
V  8  13357.475334   5802.622627  26948.383427      -.013503                    
P  9 -14708.451576 -15177.956212 -16811.384789     31.633294                    
V  9  20039.406608   2803.178910 -20511.224348       .015564                    
P 10    190.914112 -24693.537462   9259.394442     87.990729                    
V 10   5348.693297  10991.925164  29201.382565       .005778                    
P 11  17725.681736  13556.223732 -14656.387831    344.484543                    
V 11 -18835.380281   1366.852519 -21357.201829       .020152                    
P 13  17805.716812    558.569020  19590.773064     84.860145                    
V 13 -17347.962474  18046.525347  15222.788576       .031504                    
P 14 -21049.295246  14611.964201  -6793.100853     -7.803363                    
V 14   4784.611328  -7535.132080 -30797.002750       .008284                    
P 15 -23774.173147   1183.345655 -12354.456924    661.739069                    
V 15 -13836.745116  -6905.923888  25847.229959       .073015                    
P 16  -3436.672116  22746.657985  13255.342832     63.947841                    
V 16  -6512.010342 -15582.381262  25321.540754       .030496                    
P 17  21186.593585 -14023.843442  -7563.067380     98.700689                    
V 17  -4778.494578   8799.697450 -29814.809275      -.009961                    
P 18 -16057.700733  -7023.318409 -19935.956657   -246.020202                    
V 18  -4812.828641 -25043.767747  12310.847756      -.011122                    
P 19   -559.548206  18473.321102 -18941.978229      7.082185                    
V 19 -19019.254701  15219.922175  15379.119992       .028030                    
P 20  13547.262988  20296.180499  10428.438857    -23.329855                    
V 20   1243.246732  13564.900167 -27749.554672       .003081                    
P 21 -26124.365480  -4630.068552  -4086.283784     46.935007                    
V 21  -4183.336380  -4251.618197  30421.349821       .020513                    
P 22 -13380.808117   8596.028769 -21112.798016    124.865117                    
V 22  -6614.922978 -26389.051981  -6526.373499       .033340                    
P 23  10006.104805  11198.412821  21807.261567    137.808866                    
V 23 -19611.842032  19842.720793  -1362.204479      -.001177                    
P 24  23569.833236  -1915.234333  12605.770967     27.854035                    
V 24  14207.177434   6623.212249 -25766.556863       .029392                    
P 25 -12558.022946  12498.640032  20226.860941    285.945776                    
V 25 -24324.889126  -4889.946074 -12183.306971       .156870                    
P 26   1693.965293 -18809.141333 -18826.329034   -212.977493                    
V 26  17531.797948 -15268.682200  17760.810854      -.138759                    
P 27  26315.967205   4459.874495   -837.023250     62.506400                    
V 27   1256.636910   2907.991441  31500.800222       .018322                    
P 28  14540.874271  -3964.123778 -21573.562721     21.126137                    
V 28   7211.320526  27160.970411   -468.474046      -.008041                    
P 29   4852.379983 -20288.253830 -16034.912034    633.441804                    
V 29  15626.085816 -13896.836064  22282.045668       .009808                    
P 30 -16465.448582 -12451.932304  16487.358754      6.598332                    
V 30  -4499.677811 -21113.165135 -19970.176786       .011404                    
EOF
